{"spkid": "50766361", "covariance": {"epoch": "2457482.5", "labels": ["e", "q", "tp", "node", "peri", "i"], "data": [["9.538766739385519E-15", "-1.345887314646107E-14", "-3.772275290732867E-13", "4.012548757653894E-14", "-8.413773400935106E-14", "2.334701682224089E-13"], ["-1.345887314646107E-14", "1.902527167765604E-14", "4.881590395504922E-13", "-5.706999946016489E-14", "9.921342116004217E-14", "-3.260913696835691E-13"], ["-3.772275290732867E-13", "4.881590395504922E-13", "6.374606338014978E-10", "-2.726407854490948E-11", "2.753638906936946E-10", "-2.477006065244792E-11"], ["4.012548757653894E-14", "-5.706999946016489E-14", "-2.726407854490948E-11", "2.97354183760298E-11", "-2.419638898690535E-11", "-2.343601678467193E-13"], ["-8.413773400935106E-14", "9.921342116004217E-14", "2.753638906936946E-10", "-2.419638898690535E-11", "1.447763747525827E-10", "-8.602867808671831E-12"], ["2.334701682224089E-13", "-3.260913696835691E-13", "-2.477006065244792E-11", "-2.343601678467193E-13", "-8.602867808671831E-12", "3.674601286222166E-10"]], "elements": [{"value": ".2688738478113876", "title": "eccentricity", "units": null, "sigma": 9.76666101561097e-08, "name": "e", "label": "e"}, {"label": "q", "name": "q", "sigma": 1.37932127068555e-07, "title": "perihelion distance", "value": "1.037871475162502", "units": "au"}, {"title": "time of perihelion passage", "value": "2457476.321619276698", "units": "TDB", "name": "tp", "sigma": 2.52479827669756e-05, "label": "tp"}, {"label": "node", "name": "om", "sigma": 5.45301919820844e-06, "title": "longitude of the ascending node", "value": "129.0901287012894", "units": "deg"}, {"sigma": 1.20323054629021e-05, "name": "w", "units": "deg", "title": "argument of perihelion", "value": "176.5638727917244", "label": "peri"}, {"sigma": 1.91692495581391e-05, "name": "i", "units": "deg", "title": "inclination", "value": "60.27505616499276", "label": "i"}]}, "elements": [{"label": "e", "units": null, "title": "eccentricity", "value": ".2689539231274904", "name": "e", "sigma": "9.7672E-8"}, {"label": "a", "sigma": "8.1545E-9", "name": "a", "units": "au", "value": "1.419611167870211", "title": "semi-major axis"}, {"label": "q", "units": "au", "value": "1.03780117495592", "title": "perihelion distance", "name": "q", "sigma": "1.3794E-7"}, {"name": "i", "sigma": "1.917E-5", "units": "deg", "value": "60.28033587094137", "title": "inclination; angle with respect to x-y ecliptic plane", "label": "i"}, {"label": "node", "sigma": "5.4525E-6", "name": "om", "units": "deg", "value": "129.0719571619182", "title": "longitude of the ascending node"}, {"label": "peri", "name": "w", "sigma": "1.2027E-5", "title": "argument of perihelion", "value": "176.5956743197889", "units": "deg"}, {"label": "M", "sigma": "1.9814E-5", "name": "ma", "title": "mean anomaly", "value": "10.1697859376053", "units": "deg"}, {"name": "tp", "sigma": "3.3897E-5", "value": "2461183.047331143418", "title": "time of perihelion passage", "units": "TDB", "label": "tp"}, {"label": "period", "value": "617.8065916940091", "title": "sidereal orbital period", "units": "d", "sigma": "5.3232E-6", "name": "per"}, {"name": "n", "sigma": "5.0208E-9", "units": "deg/d", "value": ".5827066347947012", "title": "mean motion", "label": "n"}, {"label": "Q", "sigma": "1.0348E-8", "name": "ad", "title": "aphelion distance", "value": "1.801421160784503", "units": "au"}], "epoch": "2461200.5"}